STARLINK-34233          
1 64172U 25113C   26147.24487698  .00040297  00000+0  13029-2 0  9998
2 64172  53.1601  86.1573 0001179  90.4430 269.6707 15.31710258 57097
STARLINK-34172          
1 64173U 25113D   26147.06303375  .00023350  00000+0  76155-3 0  9999
2 64173  53.1589  86.4418 0000933  91.8680 268.2429 15.31712987 57034
STARLINK-34202          
1 64174U 25113E   26147.24975599  .00038870  00000+0  13173-2 0  9996
2 64174  53.1583  86.1847 0001232  85.8021 274.3120 15.30210018 57096
STARLINK-34231          
1 64175U 25113F   26147.24010515  .00412429  00000+0  12391-1 0  9991
2 64175  53.1594  86.1227 0010619 330.8546  29.1862 15.32168548 57096
STARLINK-34191          
1 64176U 25113G   26147.23924212  .00044043  00000+0  13072-2 0  9990
2 64176  53.1603  85.4098 0001200  73.7968 286.3166 15.34395128 57107
STARLINK-34164          
1 64177U 25113H   26147.20765791  .00019298  00000+0  66176-3 0  9991
2 64177  53.1592  86.6350 0001201  81.0054 279.1082 15.30210519 57088
STARLINK-34227          
1 64178U 25113J   26147.12228978  .00012205  00000+0  42348-3 0  9990
2 64178  53.1582  86.8085 0001192  86.9473 273.1665 15.30202344 57070
STARLINK-34194          
1 64179U 25113K   26147.21188959  .00014228  00000+0  43125-3 0  9996
2 64179  53.1594  85.2407 0001029  84.7303 275.3817 15.34413348 57101
STARLINK-34000          
1 64180U 25113L   26147.23814796  .00023415  00000+0  80012-3 0  9999
2 64180  53.1594  86.1093 0001389  80.1107 280.0050 15.30203029 57050
STARLINK-33917          
1 64181U 25113M   26147.13389954  .00014265  00000+0  49283-3 0  9990
2 64181  53.1585  86.8791 0001157 132.7853 227.3245 15.30200016 57073
STARLINK-34131          
1 64182U 25113N   26147.25081106  .00037942  00000+0  12864-2 0  9993
2 64182  53.1575  86.1863 0001204  85.8689 274.2449 15.30206146 57059
STARLINK-34188          
1 64183U 25113P   26147.23554086  .00039376  00000+0  12737-2 0  9996
2 64183  53.1592  86.0950 0001382  93.4594 266.6565 15.31706118 57095
STARLINK-34197          
1 64184U 25113Q   26147.20451181  .00023949  00000+0  81785-3 0  9995
2 64184  53.1596  86.6113 0001707  93.7858 266.3338 15.30210072 57086
STARLINK-34063          
1 64185U 25113R   26147.09570479  .00030346  00000+0  98524-3 0  9993
2 64185  53.1600  86.6431 0001142  81.8886 278.2245 15.31713771 57071
STARLINK-34200          
1 64186U 25113S   26147.20286814  .00033048  00000+0  10718-2 0  9994
2 64186  53.1593  85.8910 0001337  92.5543 267.5611 15.31706436 57091
STARLINK-33934          
1 64187U 25113T   26147.19499427  .00025868  00000+0  88260-3 0  9998
2 64187  53.1593  86.5499 0001143  87.0824 273.0307 15.30195264 57047
STARLINK-33929          
1 64188U 25113U   26147.12756810  .00019334  00000+0  66323-3 0  9991
2 64188  53.1593  86.8347 0001180  88.8150 271.2985 15.30197844 57076
STARLINK-33872          
1 64189U 25113V   26147.20557704  .00032273  00000+0  96239-3 0  9998
2 64189  53.1590  85.1952 0001033  85.0940 275.0181 15.34393600 57062
STARLINK-34214          
1 64190U 25113W   26147.20554838  .00033098  00000+0  11246-2 0  9995
2 64190  53.1594  86.6161 0001103  88.6733 271.4394 15.30201492 57084
STARLINK-34222          
1 64191U 25113X   26147.21082452  .00031143  00000+0  10591-2 0  9996
2 64191  53.1595  86.6478 0001197  82.4652 277.6485 15.30203096 57049
STARLINK-34265          
1 64192U 25113Y   26147.06752963  .00009566  00000+0  33469-3 0  9995
2 64192  53.1586  87.1752 0000829  86.4407 273.6689 15.30200315 57025
STARLINK-34245          
1 64193U 25113Z   26147.22661789  .00030646  00000+0  91470-3 0  9998
2 64193  53.1614  85.3310 0001290  72.7708 287.3436 15.34390871 57060
STARLINK-34237          
1 64194U 25113AA  26147.21687272  .00034278  00000+0  11109-2 0  9998
2 64194  53.1604  85.9775 0001429  66.1407 293.9744 15.31710423 57058
STARLINK-33857          
1 64195U 25113AB  26147.23709207  .00023937  00000+0  81784-3 0  9991
2 64195  53.1592  86.1011 0001386  92.6249 267.4911 15.30194984 57050
STARLINK-34173          
1 64196U 25113AC  26147.23087422  .00037165  00000+0  12031-2 0  9996
2 64196  53.1609  86.0657 0001302  84.3994 275.7156 15.31709409 57090
SHIJIAN-26 (SJ-26)      
1 64199U 25115A   26147.17885559  .00006446  00000+0  27210-3 0  9995
2 64199  97.4559 225.8436 0020569  69.0037 291.3398 15.23430515 55247
NAVSTAR 84 (USA 545)    
1 64202U 25116A   26146.40550372 -.00000109  00000+0  00000+0 0  9993
2 64202  55.2201  32.0065 0008491 336.6350 206.7556  2.00577532  7431
STARLINK-33966          
1 64203U 25117A   26146.98200391  .00003366  00000+0  12575-3 0  9992
2 64203  53.1588  35.8723 0000807  87.5333 272.5760 15.30191960 56543
STARLINK-34331          
1 64204U 25117B   26147.26739010  .00616639  00000+0  18958-1 0  9992
2 64204  53.1622  34.8040 0001635  67.9938 292.1237 15.30956746 56556
STARLINK-34251          
1 64205U 25117C   26147.25002315  .00009736  00000+0  29906-3 0  9994
2 64205  53.1600  34.8336 0001120  88.6471 202.7897 15.34384683  5914
