OBJECT_NAME,OBJECT_ID,EPOCH,MEAN_MOTION,ECCENTRICITY,INCLINATION,RA_OF_ASC_NODE,ARG_OF_PERICENTER,MEAN_ANOMALY,EPHEMERIS_TYPE,CLASSIFICATION_TYPE,NORAD_CAT_ID,ELEMENT_SET_NO,REV_AT_EPOCH,BSTAR,MEAN_MOTION_DOT,MEAN_MOTION_DDOT
STARLINK-34233,2025-113C,2026-05-27T05:52:37.371072,15.31710258,.00011796,53.1601,86.1573,90.4430,269.6707,0,U,64172,999,5709,.13029097E-2,.40297E-3,0
STARLINK-34172,2025-113D,2026-05-27T01:30:46.116000,15.31712987,.00009335,53.1589,86.4418,91.8680,268.2429,0,U,64173,999,5703,.76154979E-3,.2335E-3,0
STARLINK-34202,2025-113E,2026-05-27T05:59:38.917536,15.30210018,.00012323,53.1583,86.1847,85.8021,274.3120,0,U,64174,999,5709,.13172535E-2,.3887E-3,0
STARLINK-34231,2025-113F,2026-05-27T05:45:45.084960,15.32168548,.00106194,53.1594,86.1227,330.8546,29.1862,0,U,64175,999,5709,.12390973E-1,.412429E-2,0
STARLINK-34191,2025-113G,2026-05-27T05:44:30.519168,15.34395128,.00012009,53.1603,85.4098,73.7968,286.3166,0,U,64176,999,5710,.13072224E-2,.44043E-3,0
STARLINK-34164,2025-113H,2026-05-27T04:59:01.643424,15.30210519,.00012011,53.1592,86.6350,81.0054,279.1082,0,U,64177,999,5708,.66176023E-3,.19298E-3,0
STARLINK-34227,2025-113J,2026-05-27T02:56:05.836992,15.30202344,.00011929,53.1582,86.8085,86.9473,273.1665,0,U,64178,999,5707,.423481E-3,.12205E-3,0
STARLINK-34194,2025-113K,2026-05-27T05:05:07.260576,15.34413348,.00010292,53.1594,85.2407,84.7303,275.3817,0,U,64179,999,5710,.4312522E-3,.14228E-3,0
STARLINK-34000,2025-113L,2026-05-27T05:42:55.983744,15.30203029,.00013899,53.1594,86.1093,80.1107,280.0050,0,U,64180,999,5705,.80012045E-3,.23415E-3,0
STARLINK-33917,2025-113M,2026-05-27T03:12:48.920256,15.30200016,.00011576,53.1585,86.8791,132.7853,227.3245,0,U,64181,999,5707,.4928326E-3,.14265E-3,0
STARLINK-34131,2025-113N,2026-05-27T06:01:10.075584,15.30206146,.00012044,53.1575,86.1863,85.8689,274.2449,0,U,64182,999,5705,.12863973E-2,.37942E-3,0
STARLINK-34188,2025-113P,2026-05-27T05:39:10.730304,15.31706118,.00013822,53.1592,86.0950,93.4594,266.6565,0,U,64183,999,5709,.12736934E-2,.39376E-3,0
STARLINK-34197,2025-113Q,2026-05-27T04:54:29.820384,15.30210072,.00017076,53.1596,86.6113,93.7858,266.3338,0,U,64184,999,5708,.81784692E-3,.23949E-3,0
STARLINK-34063,2025-113R,2026-05-27T02:17:48.893856,15.31713771,.00011424,53.1600,86.6431,81.8886,278.2245,0,U,64185,999,5707,.98524005E-3,.30346E-3,0
STARLINK-34200,2025-113S,2026-05-27T04:52:07.807296,15.31706436,.00013374,53.1593,85.8910,92.5543,267.5611,0,U,64186,999,5709,.10717842E-2,.33048E-3,0
STARLINK-33934,2025-113T,2026-05-27T04:40:47.504928,15.30195264,.00011436,53.1593,86.5499,87.0824,273.0307,0,U,64187,999,5704,.88260096E-3,.25868E-3,0
STARLINK-33929,2025-113U,2026-05-27T03:03:41.883840,15.30197844,.000118,53.1593,86.8347,88.8150,271.2985,0,U,64188,999,5707,.66323128E-3,.19334E-3,0
STARLINK-33872,2025-113V,2026-05-27T04:56:01.856256,15.34393600,.00010337,53.1590,85.1952,85.0940,275.0181,0,U,64189,999,5706,.96239333E-3,.32273E-3,0
STARLINK-34214,2025-113W,2026-05-27T04:55:59.380032,15.30201492,.00011038,53.1594,86.6161,88.6733,271.4394,0,U,64190,999,5708,.1124599E-2,.33098E-3,0
STARLINK-34222,2025-113X,2026-05-27T05:03:35.238528,15.30203096,.00011976,53.1595,86.6478,82.4652,277.6485,0,U,64191,999,5704,.10591091E-2,.31143E-3,0
STARLINK-34265,2025-113Y,2026-05-27T01:37:14.560032,15.30200315,.00008296,53.1586,87.1752,86.4407,273.6689,0,U,64192,999,5702,.33469146E-3,.9566E-4,0
STARLINK-34245,2025-113Z,2026-05-27T05:26:19.785696,15.34390871,.00012901,53.1614,85.3310,72.7708,287.3436,0,U,64193,999,5706,.91470028E-3,.30646E-3,0
STARLINK-34237,2025-113AA,2026-05-27T05:12:17.803008,15.31710423,.00014295,53.1604,85.9775,66.1407,293.9744,0,U,64194,999,5705,.11109296E-2,.34278E-3,0
STARLINK-33857,2025-113AB,2026-05-27T05:41:24.754848,15.30194984,.00013861,53.1592,86.1011,92.6249,267.4911,0,U,64195,999,5705,.81783672E-3,.23937E-3,0
STARLINK-34173,2025-113AC,2026-05-27T05:32:27.532608,15.31709409,.00013027,53.1609,86.0657,84.3994,275.7156,0,U,64196,999,5709,.12030771E-2,.37165E-3,0
SHIJIAN-26 (SJ-26),2025-115A,2026-05-27T04:17:33.122976,15.23430515,.00205697,97.4559,225.8436,69.0037,291.3398,0,U,64199,999,5524,.27209725E-3,.6446E-4,0
NAVSTAR 84 (USA 545),2025-116A,2026-05-26T09:43:55.521408,2.00577532,.00084916,55.2201,32.0065,336.6350,206.7556,0,U,64202,999,743,0,-.109E-5,0
STARLINK-33966,2025-117A,2026-05-26T23:34:05.137824,15.30191960,.00008073,53.1588,35.8723,87.5333,272.5760,0,U,64203,999,5654,.12574726E-3,.3366E-4,0
STARLINK-34331,2025-117B,2026-05-27T06:25:02.504640,15.30956746,.0001635,53.1622,34.8040,67.9938,292.1237,0,U,64204,999,5655,.18958123E-1,.616639E-2,0
STARLINK-34251,2025-117C,2026-05-27T06:00:02.000160,15.34384683,.000112,53.1600,34.8336,88.6471,202.7897,0,U,64205,999,591,.29906267E-3,.9736E-4,0
